{
  "type": "FeatureCollection",
  "features": [
    {
      "type": "Feature",
      "properties": {
        "norad_id": 67060,
        "name": "HULIANWANG DIGUI 16B",
        "group": "last-30-days",
        "lat": -6.619102173526749,
        "lon": 177.40413415268935,
        "alt_km": 803.8792096837369,
        "timestamp": "2025-12-17T13:48:36.282388+00:00",
        "meta_object_name": "HULIANWANG DIGUI 16B",
        "meta_object_id": "2025-295B",
        "meta_epoch": "2025-12-12T05:06:25.468992",
        "meta_mean_motion": 14.26022254,
        "meta_eccentricity": 0.0013423,
        "meta_inclination": 50.0012,
        "meta_ra_of_asc_node": 14.4776,
        "meta_arg_of_pericenter": 244.6732,
        "meta_mean_anomaly": 115.2792,
        "meta_ephemeris_type": 0,
        "meta_classification_type": "U",
        "meta_norad_cat_id": 67060,
        "meta_element_set_no": 999,
        "meta_rev_at_epoch": 4,
        "meta_bstar": 4.398892e-06,
        "meta_mean_motion_dot": -1.5e-06,
        "meta_mean_motion_ddot": 0,
        "tle_line1": "1 67060U 25295B   25346.21279478 -.00000150  00000+0  43989-5 0  9996",
        "tle_line2": "2 67060  50.0012  14.4776 0013423 244.6732 115.2792 14.26022254    48"
      },
      "geometry": {
        "type": "Point",
        "coordinates": [
          177.40413415268935,
          -6.619102173526749
        ]
      }
    },
    {
      "type": "Feature",
      "properties": {
        "norad_id": 67062,
        "name": "HULIANWANG DIGUI 16D",
        "group": "last-30-days",
        "lat": -5.113105132169033,
        "lon": 176.122114212556,
        "alt_km": 805.5379243923235,
        "timestamp": "2025-12-17T13:48:36.282400+00:00",
        "meta_object_name": "HULIANWANG DIGUI 16D",
        "meta_object_id": "2025-295D",
        "meta_epoch": "2025-12-12T05:06:24.477120",
        "meta_mean_motion": 14.25916921,
        "meta_eccentricity": 0.00124974,
        "meta_inclination": 50.0052,
        "meta_ra_of_asc_node": 14.4731,
        "meta_arg_of_pericenter": 251.2247,
        "meta_mean_anomaly": 108.7311,
        "meta_ephemeris_type": 0,
        "meta_classification_type": "U",
        "meta_norad_cat_id": 67062,
        "meta_element_set_no": 999,
        "meta_rev_at_epoch": 4,
        "meta_bstar": 3.753899e-06,
        "meta_mean_motion_dot": -1.51e-06,
        "meta_mean_motion_ddot": 0,
        "tle_line1": "1 67062U 25295D   25346.21278330 -.00000151  00000+0  37539-5 0  9999",
        "tle_line2": "2 67062  50.0052  14.4731 0012497 251.2247 108.7311 14.25916921    46"
      },
      "geometry": {
        "type": "Point",
        "coordinates": [
          176.122114212556,
          -5.113105132169033
        ]
      }
    },
    {
      "type": "Feature",
      "properties": {
        "norad_id": 67064,
        "name": "HULIANWANG DIGUI 16F",
        "group": "last-30-days",
        "lat": -20.276662701712578,
        "lon": -170.16952973008546,
        "alt_km": 799.2725390551177,
        "timestamp": "2025-12-17T13:48:36.282410+00:00",
        "meta_object_name": "HULIANWANG DIGUI 16F",
        "meta_object_id": "2025-295F",
        "meta_epoch": "2025-12-12T05:06:22.414752",
        "meta_mean_motion": 14.26957674,
        "meta_eccentricity": 0.00149026,
        "meta_inclination": 50.0027,
        "meta_ra_of_asc_node": 14.4596,
        "meta_arg_of_pericenter": 247.8107,
        "meta_mean_anomaly": 112.1227,
        "meta_ephemeris_type": 0,
        "meta_classification_type": "U",
        "meta_norad_cat_id": 67064,
        "meta_element_set_no": 999,
        "meta_rev_at_epoch": 4,
        "meta_bstar": 2.6251967e-05,
        "meta_mean_motion_dot": -9.6e-07,
        "meta_mean_motion_ddot": 0,
        "tle_line1": "1 67064U 25295F   25346.21275943 -.00000096  00000+0  26252-4 0  9995",
        "tle_line2": "2 67064  50.0027  14.4596 0014902 247.8107 112.1227 14.26957674    44"
      },
      "geometry": {
        "type": "Point",
        "coordinates": [
          -170.16952973008546,
          -20.276662701712578
        ]
      }
    },
    {
      "type": "Feature",
      "properties": {
        "norad_id": 67066,
        "name": "HULIANWANG DIGUI 16H",
        "group": "last-30-days",
        "lat": -12.860601433254702,
        "lon": -177.16798813112547,
        "alt_km": 802.9848188661599,
        "timestamp": "2025-12-17T13:48:36.282420+00:00",
        "meta_object_name": "HULIANWANG DIGUI 16H",
        "meta_object_id": "2025-295H",
        "meta_epoch": "2025-12-12T05:06:20.088000",
        "meta_mean_motion": 14.26429655,
        "meta_eccentricity": 0.00114905,
        "meta_inclination": 50.0029,
        "meta_ra_of_asc_node": 14.4606,
        "meta_arg_of_pericenter": 248.6611,
        "meta_mean_anomaly": 111.3077,
        "meta_ephemeris_type": 0,
        "meta_classification_type": "U",
        "meta_norad_cat_id": 67066,
        "meta_element_set_no": 999,
        "meta_rev_at_epoch": 4,
        "meta_bstar": 2.4353642e-05,
        "meta_mean_motion_dot": -1.01e-06,
        "meta_mean_motion_ddot": 0,
        "tle_line1": "1 67066U 25295H   25346.21273250 -.00000101  00000+0  24354-4 0  9994",
        "tle_line2": "2 67066  50.0029  14.4606 0011490 248.6611 111.3077 14.26429655    45"
      },
      "geometry": {
        "type": "Point",
        "coordinates": [
          -177.16798813112547,
          -12.860601433254702
        ]
      }
    },
    {
      "type": "Feature",
      "properties": {
        "norad_id": 67067,
        "name": "HULIANWANG DIGUI 16J",
        "group": "last-30-days",
        "lat": -11.946137203617159,
        "lon": -177.97554360457312,
        "alt_km": 804.0619392595045,
        "timestamp": "2025-12-17T13:48:36.282429+00:00",
        "meta_object_name": "HULIANWANG DIGUI 16J",
        "meta_object_id": "2025-295J",
        "meta_epoch": "2025-12-12T05:06:18.555264",
        "meta_mean_motion": 14.26361638,
        "meta_eccentricity": 0.00104901,
        "meta_inclination": 50.0044,
        "meta_ra_of_asc_node": 14.4694,
        "meta_arg_of_pericenter": 253.0387,
        "meta_mean_anomaly": 106.9378,
        "meta_ephemeris_type": 0,
        "meta_classification_type": "U",
        "meta_norad_cat_id": 67067,
        "meta_element_set_no": 999,
        "meta_rev_at_epoch": 4,
        "meta_bstar": 6.475965e-06,
        "meta_mean_motion_dot": -1.45e-06,
        "meta_mean_motion_ddot": 0,
        "tle_line1": "1 67067U 25295J   25346.21271476 -.00000145  00000+0  64760-5 0  9997",
        "tle_line2": "2 67067  50.0044  14.4694 0010490 253.0387 106.9378 14.26361638    49"
      },
      "geometry": {
        "type": "Point",
        "coordinates": [
          -177.97554360457312,
          -11.946137203617159
        ]
      }
    },
    {
      "type": "Feature",
      "properties": {
        "norad_id": 67069,
        "name": "XIWANG-5 02",
        "group": "last-30-days",
        "lat": 3.394161776111927,
        "lon": 77.85103697327928,
        "alt_km": 508.1790583182092,
        "timestamp": "2025-12-17T13:48:36.282439+00:00",
        "meta_object_name": "XIWANG-5 02",
        "meta_object_id": "2025-296A",
        "meta_epoch": "2025-12-17T07:28:01.060032",
        "meta_mean_motion": 15.1693037,
        "meta_eccentricity": 0.0014147,
        "meta_inclination": 41.3521,
        "meta_ra_of_asc_node": 75.4926,
        "meta_arg_of_pericenter": 54.9674,
        "meta_mean_anomaly": 305.2472,
        "meta_ephemeris_type": 0,
        "meta_classification_type": "U",
        "meta_norad_cat_id": 67069,
        "meta_element_set_no": 999,
        "meta_rev_at_epoch": 65,
        "meta_bstar": 0.00052493643,
        "meta_mean_motion_dot": 0.00010389,
        "meta_mean_motion_ddot": 0,
        "tle_line1": "1 67069U 25296A   25351.31112338  .00010389  00000+0  52494-3 0  9997",
        "tle_line2": "2 67069  41.3521  75.4926 0014147  54.9674 305.2472 15.16930370   650"
      },
      "geometry": {
        "type": "Point",
        "coordinates": [
          77.85103697327928,
          3.394161776111927
        ]
      }
    },
    {
      "type": "Feature",
      "properties": {
        "norad_id": 67070,
        "name": "DEAR-5",
        "group": "last-30-days",
        "lat": 5.456810131056484,
        "lon": 80.21443732502992,
        "alt_km": 507.0327579149762,
        "timestamp": "2025-12-17T13:48:36.282449+00:00",
        "meta_object_name": "DEAR-5",
        "meta_object_id": "2025-296B",
        "meta_epoch": "2025-12-16T17:13:51.567744",
        "meta_mean_motion": 15.16864031,
        "meta_eccentricity": 0.00164401,
        "meta_inclination": 41.3568,
        "meta_ra_of_asc_node": 78.872,
        "meta_arg_of_pericenter": 53.4577,
        "meta_mean_anomaly": 306.7756,
        "meta_ephemeris_type": 0,
        "meta_classification_type": "U",
        "meta_norad_cat_id": 67070,
        "meta_element_set_no": 999,
        "meta_rev_at_epoch": 55,
        "meta_bstar": 7.549016e-05,
        "meta_mean_motion_dot": 1.312e-05,
        "meta_mean_motion_ddot": 0,
        "tle_line1": "1 67070U 25296B   25350.71795796  .00001312  00000+0  75490-4 0  9995",
        "tle_line2": "2 67070  41.3568  78.8720 0016440  53.4577 306.7756 15.16864031   556"
      },
      "geometry": {
        "type": "Point",
        "coordinates": [
          80.21443732502992,
          5.456810131056484
        ]
      }
    }
  ]
}